{
  "type": "FeatureCollection",
  "features": [
    {
      "type": "Feature",
      "properties": {
        "norad_id": 38867,
        "name": "INTELSAT 23 (IS-23)",
        "group": "intelsat",
        "lat": -0.012100315834418084,
        "lon": -104.00565433235396,
        "alt_km": 35782.96036565453,
        "timestamp": "2025-12-15T14:57:57.507826+00:00",
        "meta_object_name": "INTELSAT 23 (IS-23)",
        "meta_object_id": "2012-057A",
        "meta_epoch": "2025-12-14T21:43:35.958720",
        "meta_mean_motion": 1.00269647,
        "meta_eccentricity": 9.722e-05,
        "meta_inclination": 0.0455,
        "meta_ra_of_asc_node": 96.647,
        "meta_arg_of_pericenter": 136.8383,
        "meta_mean_anomaly": 123.2238,
        "meta_ephemeris_type": 0,
        "meta_classification_type": "U",
        "meta_norad_cat_id": 38867,
        "meta_element_set_no": 999,
        "meta_rev_at_epoch": 4810,
        "meta_bstar": 0,
        "meta_mean_motion_dot": -2.65e-06,
        "meta_mean_motion_ddot": 0,
        "tle_line1": "1 38867U 12057A   25348.90527730 -.00000265  00000+0  00000+0 0  9994",
        "tle_line2": "2 38867   0.0455  96.6470 0000972 136.8383 123.2238  1.00269647 48109"
      },
      "geometry": {
        "type": "Point",
        "coordinates": [
          -104.00565433235396,
          -0.012100315834418084
        ]
      }
    },
    {
      "type": "Feature",
      "properties": {
        "norad_id": 39360,
        "name": "FM-6",
        "group": "intelsat",
        "lat": -0.002442415673249379,
        "lon": -167.13554457640254,
        "alt_km": 35773.87544824994,
        "timestamp": "2025-12-15T14:57:57.507836+00:00",
        "meta_object_name": "FM-6",
        "meta_object_id": "2013-058A",
        "meta_epoch": "2025-12-14T21:25:37.680672",
        "meta_mean_motion": 1.00269836,
        "meta_eccentricity": 0.00031328,
        "meta_inclination": 0.0079,
        "meta_ra_of_asc_node": 55.0076,
        "meta_arg_of_pericenter": 123.1804,
        "meta_mean_anomaly": 110.8805,
        "meta_ephemeris_type": 0,
        "meta_classification_type": "U",
        "meta_norad_cat_id": 39360,
        "meta_element_set_no": 999,
        "meta_rev_at_epoch": 4422,
        "meta_bstar": 0,
        "meta_mean_motion_dot": 3e-08,
        "meta_mean_motion_ddot": 0,
        "tle_line1": "1 39360U 13058A   25348.89279723  .00000003  00000+0  00000+0 0  9998",
        "tle_line2": "2 39360   0.0079  55.0076 0003132 123.1804 110.8805  1.00269836 44220"
      },
      "geometry": {
        "type": "Point",
        "coordinates": [
          -167.13554457640254,
          -0.002442415673249379
        ]
      }
    },
    {
      "type": "Feature",
      "properties": {
        "norad_id": 40271,
        "name": "INTELSAT 30 (IS-30)",
        "group": "intelsat",
        "lat": -0.016738475772674836,
        "lon": -146.03611802469996,
        "alt_km": 35789.67509970668,
        "timestamp": "2025-12-15T14:57:57.507847+00:00",
        "meta_object_name": "INTELSAT 30 (IS-30)",
        "meta_object_id": "2014-062A",
        "meta_epoch": "2025-12-14T21:31:37.107264",
        "meta_mean_motion": 1.00271476,
        "meta_eccentricity": 0.00014574,
        "meta_inclination": 0.014,
        "meta_ra_of_asc_node": 20.6282,
        "meta_arg_of_pericenter": 69.1308,
        "meta_mean_anomaly": 221.9017,
        "meta_ephemeris_type": 0,
        "meta_classification_type": "U",
        "meta_norad_cat_id": 40271,
        "meta_element_set_no": 999,
        "meta_rev_at_epoch": 494,
        "meta_bstar": 0,
        "meta_mean_motion_dot": -1.31e-06,
        "meta_mean_motion_ddot": 0,
        "tle_line1": "1 40271U 14062A   25348.89695726 -.00000131  00000+0  00000+0 0  9995",
        "tle_line2": "2 40271   0.0140  20.6282 0001457  69.1308 221.9017  1.00271476  4942"
      },
      "geometry": {
        "type": "Point",
        "coordinates": [
          -146.03611802469996,
          -0.016738475772674836
        ]
      }
    },
    {
      "type": "Feature",
      "properties": {
        "norad_id": 40333,
        "name": "DIRECTV 14",
        "group": "intelsat",
        "lat": -0.016899679232349873,
        "lon": -150.22941589222478,
        "alt_km": 35786.55109871885,
        "timestamp": "2025-12-15T14:57:57.507858+00:00",
        "meta_object_name": "DIRECTV 14",
        "meta_object_id": "2014-078B",
        "meta_epoch": "2025-12-14T21:30:22.226112",
        "meta_mean_motion": 1.00270238,
        "meta_eccentricity": 2.581e-05,
        "meta_inclination": 0.002,
        "meta_ra_of_asc_node": 354.0631,
        "meta_arg_of_pericenter": 125.1484,
        "meta_mean_anomaly": 187.9572,
        "meta_ephemeris_type": 0,
        "meta_classification_type": "U",
        "meta_norad_cat_id": 40333,
        "meta_element_set_no": 999,
        "meta_rev_at_epoch": 4019,
        "meta_bstar": 0,
        "meta_mean_motion_dot": -1.05e-06,
        "meta_mean_motion_ddot": 0,
        "tle_line1": "1 40333U 14078B   25348.89609058 -.00000105  00000+0  00000+0 0  9995",
        "tle_line2": "2 40333   0.0020 354.0631 0000258 125.1484 187.9572  1.00270238 40195"
      },
      "geometry": {
        "type": "Point",
        "coordinates": [
          -150.22941589222478,
          -0.016899679232349873
        ]
      }
    },
    {
      "type": "Feature",
      "properties": {
        "norad_id": 40663,
        "name": "DIRECTV 15",
        "group": "intelsat",
        "lat": 0.009610852314172,
        "lon": -153.86149438951327,
        "alt_km": 35785.78067631712,
        "timestamp": "2025-12-15T14:57:57.507868+00:00",
        "meta_object_name": "DIRECTV 15",
        "meta_object_id": "2015-026A",
        "meta_epoch": "2025-12-14T21:29:22.322400",
        "meta_mean_motion": 1.00270662,
        "meta_eccentricity": 1.699e-05,
        "meta_inclination": 0.0386,
        "meta_ra_of_asc_node": 84.4864,
        "meta_arg_of_pericenter": 93.0344,
        "meta_mean_anomaly": 125.7663,
        "meta_ephemeris_type": 0,
        "meta_classification_type": "U",
        "meta_norad_cat_id": 40663,
        "meta_element_set_no": 999,
        "meta_rev_at_epoch": 3861,
        "meta_bstar": 0,
        "meta_mean_motion_dot": -8.3e-07,
        "meta_mean_motion_ddot": 0,
        "tle_line1": "1 40663U 15026A   25348.89539725 -.00000083  00000+0  00000+0 0  9993",
        "tle_line2": "2 40663   0.0386  84.4864 0000169  93.0344 125.7663  1.00270662 38613"
      },
      "geometry": {
        "type": "Point",
        "coordinates": [
          -153.86149438951327,
          0.009610852314172
        ]
      }
    },
    {
      "type": "Feature",
      "properties": {
        "norad_id": 40664,
        "name": "SKY MEXICO-1",
        "group": "intelsat",
        "lat": -0.03863566243027242,
        "lon": -129.77926895300843,
        "alt_km": 35779.3823585948,
        "timestamp": "2025-12-15T14:57:57.507879+00:00",
        "meta_object_name": "SKY MEXICO-1",
        "meta_object_id": "2015-026B",
        "meta_epoch": "2025-12-14T21:36:14.164416",
        "meta_mean_motion": 1.00271952,
        "meta_eccentricity": 0.0002455,
        "meta_inclination": 0.0232,
        "meta_ra_of_asc_node": 294.7871,
        "meta_arg_of_pericenter": 345.2968,
        "meta_mean_anomaly": 49.0256,
        "meta_ephemeris_type": 0,
        "meta_classification_type": "U",
        "meta_norad_cat_id": 40664,
        "meta_element_set_no": 999,
        "meta_rev_at_epoch": 3860,
        "meta_bstar": 0,
        "meta_mean_motion_dot": -2.15e-06,
        "meta_mean_motion_ddot": 0,
        "tle_line1": "1 40664U 15026B   25348.90016394 -.00000215  00000+0  00000+0 0  9995",
        "tle_line2": "2 40664   0.0232 294.7871 0002455 345.2968  49.0256  1.00271952 38600"
      },
      "geometry": {
        "type": "Point",
        "coordinates": [
          -129.77926895300843,
          -0.03863566243027242
        ]
      }
    },
    {
      "type": "Feature",
      "properties": {
        "norad_id": 40874,
        "name": "INTELSAT 34 (IS-34)",
        "group": "intelsat",
        "lat": -0.029237753107594404,
        "lon": -106.48817670857356,
        "alt_km": 35786.508396827885,
        "timestamp": "2025-12-15T14:57:57.507889+00:00",
        "meta_object_name": "INTELSAT 34 (IS-34)",
        "meta_object_id": "2015-039A",
        "meta_epoch": "2025-12-14T18:17:25.706112",
        "meta_mean_motion": 1.00271143,
        "meta_eccentricity": 7.723e-05,
        "meta_inclination": 0.0116,
        "meta_ra_of_asc_node": 312.1998,
        "meta_arg_of_pericenter": 208.7792,
        "meta_mean_anomaly": 141.5559,
        "meta_ephemeris_type": 0,
        "meta_classification_type": "U",
        "meta_norad_cat_id": 40874,
        "meta_element_set_no": 999,
        "meta_rev_at_epoch": 3777,
        "meta_bstar": 0,
        "meta_mean_motion_dot": -2.66e-06,
        "meta_mean_motion_ddot": 0,
        "tle_line1": "1 40874U 15039A   25348.76210308 -.00000266  00000+0  00000+0 0  9993",
        "tle_line2": "2 40874   0.0116 312.1998 0000772 208.7792 141.5559  1.00271143 37770"
      },
      "geometry": {
        "type": "Point",
        "coordinates": [
          -106.48817670857356,
          -0.029237753107594404
        ]
      }
    }
  ]
}